CTC2_L_00215016-03
1 39782U 23393D   26037.47792824  .00000000  00000+0  00000-0 0  9999
2 39782  70.0000 180.0000 0000000   0.0000   0.0000 14.33516502    18
CTC2_L_00215016-04
1 39783U 26521EN  26037.47792824  .00000000  00000+0  00000-0 0  9996
2 39783  70.0000 180.0000 0000000   0.0000  90.0000 14.33516502    18
CTC2_L_00215017-01
1 39784U 26564V   26037.47792824  .00000000  00000+0  00000-0 0  9994
2 39784  70.0000 192.0000 0000000   0.0000 192.0000 14.33516502    15
CTC2_L_00215017-02
1 39785U 26341YK  26037.47792824  .00000000  00000+0  00000-0 0  9998
2 39785  70.0000 192.0000 0000000   0.0000 282.0000 14.33516502    16
CTC2_L_00215017-03
1 39786U 26896KU  26037.47792824  .00000000  00000+0  00000-0 0  9994
2 39786  70.0000 192.0000 0000000   0.0000  12.0000 14.33516502    18
CTC2_L_00215017-04
1 39787U 25585JD  26037.47792824  .00000000  00000+0  00000-0 0  9999
2 39787  70.0000 192.0000 0000000   0.0000 102.0000 14.33516502    19
CTC2_L_00215018-01
1 39788U 25645XD  26037.47792824  .00000000  00000+0  00000-0 0  9997
2 39788  70.0000 204.0000 0000000   0.0000 204.0000 14.33516502    17
CTC2_L_00215018-02
1 39789U 26868RD  26037.47792824  .00000000  00000+0  00000-0 0  9996
2 39789  70.0000 204.0000 0000000   0.0000 294.0000 14.33516502    17
CTC2_L_00215018-03
1 39790U 22855WR  26037.47792824  .00000000  00000+0  00000-0 0  9990
2 39790  70.0000 204.0000 0000000   0.0000  24.0000 14.33516502    10
CTC2_L_00215018-04
1 39791U 22199DU  26037.47792824  .00000000  00000+0  00000-0 0  9992
2 39791  70.0000 204.0000 0000000   0.0000 114.0000 14.33516502    11
CTC2_L_00215019-01
1 39792U 26503TV  26037.47792824  .00000000  00000+0  00000-0 0  9996
2 39792  70.0000 216.0000 0000000   0.0000 216.0000 14.33516502    18
CTC2_L_00215019-02
1 39793U 22863VQ  26037.47792824  .00000000  00000+0  00000-0 0  9992
2 39793  70.0000 216.0000 0000000   0.0000 306.0000 14.33516502    19
CTC2_L_00215019-03
1 39794U 26247UV  26037.47792824  .00000000  00000+0  00000-0 0  9993
2 39794  70.0000 216.0000 0000000   0.0000  36.0000 14.33516502    10
CTC2_L_00215019-04
1 39795U 24709BA  26037.47792824  .00000000  00000+0  00000-0 0  9995
2 39795  70.0000 216.0000 0000000   0.0000 126.0000 14.33516502    11
CTC2_L_00215020-01
1 39796U 22692BX  26037.47792824  .00000000  00000+0  00000-0 0  9995
2 39796  70.0000 228.0000 0000000   0.0000 228.0000 14.33516502    18
CTC2_L_00215020-02
1 39797U 26448JX  26037.47792824  .00000000  00000+0  00000-0 0  9999
2 39797  70.0000 228.0000 0000000   0.0000 318.0000 14.33516502    19
CTC2_L_00215020-03
1 39798U 26521QY  26037.47792824  .00000000  00000+0  00000-0 0  9992
2 39798  70.0000 228.0000 0000000   0.0000  48.0000 14.33516502    10
CTC2_L_00215020-04
1 39799U 26458ZO  26037.47792824  .00000000  00000+0  00000-0 0  9992
2 39799  70.0000 228.0000 0000000   0.0000 138.0000 14.33516502    11
CTC2_L_00215021-01
1 39800U 23284QE  26037.47792824  .00000000  00000+0  00000-0 0  9999
2 39800  70.0000 240.0000 0000000   0.0000 240.0000 14.33516502    12
CTC2_L_00215021-02
1 39801U 26198ZJ  26037.47792824  .00000000  00000+0  00000-0 0  9997
2 39801  70.0000 240.0000 0000000   0.0000 330.0000 14.33516502    13
CTC2_L_00215021-03
1 39802U 24189YB  26037.47792824  .00000000  00000+0  00000-0 0  9996
2 39802  70.0000 240.0000 0000000   0.0000  60.0000 14.33516502    14
CTC2_L_00215021-04
1 39803U 22346RL  26037.47792824  .00000000  00000+0  00000-0 0  9990
2 39803  70.0000 240.0000 0000000   0.0000 150.0000 14.33516502    15
CTC2_L_00215022-01
1 39804U 26537FN  26037.47792824  .00000000  00000+0  00000-0 0  9997
2 39804  70.0000 252.0000 0000000   0.0000 252.0000 14.33516502    12
CTC2_L_00215022-02
1 39805U 24152CS  26037.47792824  .00000000  00000+0  00000-0 0  9999
2 39805  70.0000 252.0000 0000000   0.0000 342.0000 14.33516502    13
CTC2_L_00215022-03
1 39806U 25243JB  26037.47792824  .00000000  00000+0  00000-0 0  9992
2 39806  70.0000 252.0000 0000000   0.0000  72.0000 14.33516502    14
CTC2_L_00215022-04
1 39807U 22687YY  26037.47792824  .00000000  00000+0  00000-0 0  9992
2 39807  70.0000 252.0000 0000000   0.0000 162.0000 14.33516502    15
CTC2_L_00215023-01
1 39808U 24363AN  26037.47792824  .00000000  00000+0  00000-0 0  9996
2 39808  70.0000 264.0000 0000000   0.0000 264.0000 14.33516502    12
CTC2_L_00215023-02
1 39809U 22149CN  26037.47792824  .00000000  00000+0  00000-0 0  9997
2 39809  70.0000 264.0000 0000000   0.0000 354.0000 14.33516502    13
CTC2_L_00215023-03
1 39810U 22697WI  26037.47792824  .00000000  00000+0  00000-0 0  9997
2 39810  70.0000 264.0000 0000000   0.0000  84.0000 14.33516502    15
CTC2_L_00215023-04
1 39811U 24280TT  26037.47792824  .00000000  00000+0  00000-0 0  9998
2 39811  70.0000 264.0000 0000000   0.0000 174.0000 14.33516502    16
CTC2_L_00215024-01
1 39812U 22619DA  26037.47792824  .00000000  00000+0  00000-0 0  9993
2 39812  70.0000 276.0000 0000000   0.0000 276.0000 14.33516502    13
CTC2_L_00215024-02
1 39813U 23162LA  26037.47792824  .00000000  00000+0  00000-0 0  9998
2 39813  70.0000 276.0000 0000000   0.0000   6.0000 14.33516502    15
CTC2_L_00215024-03
1 39814U 22913IE  26037.47792824  .00000000  00000+0  00000-0 0  9992
2 39814  70.0000 276.0000 0000000   0.0000  96.0000 14.33516502    15
CTC2_L_00215024-04
1 39815U 24466ZC  26037.47792824  .00000000  00000+0  00000-0 0  9998
2 39815  70.0000 276.0000 0000000   0.0000 186.0000 14.33516502    16
CTC2_L_00215025-01
1 39816U 25571BC  26037.47792824  .00000000  00000+0  00000-0 0  9997
2 39816  70.0000 288.0000 0000000   0.0000 288.0000 14.33516502    13
CTC2_L_00215025-02
1 39817U 25060FR  26037.47792824  .00000000  00000+0  00000-0 0  9991
2 39817  70.0000 288.0000 0000000   0.0000  18.0000 14.33516502    15
CTC2_L_00215025-03
1 39818U 23492SX  26037.47792824  .00000000  00000+0  00000-0 0  9999
2 39818  70.0000 288.0000 0000000   0.0000 108.0000 14.33516502    16
CTC2_L_00215025-04
1 39819U 25583CE  26037.47792824  .00000000  00000+0  00000-0 0  9993
2 39819  70.0000 288.0000 0000000   0.0000 198.0000 14.33516502    16
CTC2_L_00215026-01
1 39820U 26619RZ  26037.47792824  .00000000  00000+0  00000-0 0  9996
2 39820  70.0000 300.0000 0000000   0.0000 300.0000 14.33516502    18
CTC2_L_00215026-02
1 39821U 24262CZ  26037.47792824  .00000000  00000+0  00000-0 0  9999
2 39821  70.0000 300.0000 0000000   0.0000  30.0000 14.33516502    19
CTC2_L_00215026-03
1 39822U 23334DU  26037.47792824  .00000000  00000+0  00000-0 0  9999
2 39822  70.0000 300.0000 0000000   0.0000 120.0000 14.33516502    10
CTC2_L_00215026-04
1 39823U 23446AN  26037.47792824  .00000000  00000+0  00000-0 0  9994
2 39823  70.0000 300.0000 0000000   0.0000 210.0000 14.33516502    11
CTC2_L_00215027-01
1 39824U 23650XW  26037.47792824  .00000000  00000+0  00000-0 0  9992
2 39824  70.0000 312.0000 0000000   0.0000 312.0000 14.33516502    18
CTC2_L_00215027-02
1 39825U 25214QX  26037.47792824  .00000000  00000+0  00000-0 0  9991
2 39825  70.0000 312.0000 0000000   0.0000  42.0000 14.33516502    19
CTC2_L_00215027-03
1 39826U 22667GT  26037.47792824  .00000000  00000+0  00000-0 0  9991
2 39826  70.0000 312.0000 0000000   0.0000 132.0000 14.33516502    10
CTC2_L_00215027-04
1 39827U 25299TW  26037.47792824  .00000000  00000+0  00000-0 0  9996
2 39827  70.0000 312.0000 0000000   0.0000 222.0000 14.33516502    11
CTC2_L_00215028-01
1 39828U 26494FL  26037.47792824  .00000000  00000+0  00000-0 0  9995
2 39828  70.0000 324.0000 0000000   0.0000 324.0000 14.33516502    18
CTC2_L_00215028-02
1 39829U 24799UZ  26037.47792824  .00000000  00000+0  00000-0 0  9992
2 39829  70.0000 324.0000 0000000   0.0000  54.0000 14.33516502    19
CTC2_L_00215028-03
1 39830U 23591ER  26037.47792824  .00000000  00000+0  00000-0 0  9993
2 39830  70.0000 324.0000 0000000   0.0000 144.0000 14.33516502    11
CTC2_L_00215028-04
1 39831U 25513DV  26037.47792824  .00000000  00000+0  00000-0 0  9990
2 39831  70.0000 324.0000 0000000   0.0000 234.0000 14.33516502    12
CTC2_L_00215029-01
1 39832U 25466NO  26037.47792824  .00000000  00000+0  00000-0 0  9998
2 39832  70.0000 336.0000 0000000   0.0000 336.0000 14.33516502    19
CTC2_L_00215029-02
1 39833U 22656WX  26037.47792824  .00000000  00000+0  00000-0 0  9997
2 39833  70.0000 336.0000 0000000   0.0000  66.0000 14.33516502    10
CTC2_L_00215029-03
1 39834U 23200JC  26037.47792824  .00000000  00000+0  00000-0 0  9994
2 39834  70.0000 336.0000 0000000   0.0000 156.0000 14.33516502    11
CTC2_L_00215029-04
1 39835U 25456OO  26037.47792824  .00000000  00000+0  00000-0 0  9990
2 39835  70.0000 336.0000 0000000   0.0000 246.0000 14.33516502    12
CTC2_L_00215030-01
1 39836U 24746NL  26037.47792824  .00000000  00000+0  00000-0 0  9992
2 39836  70.0000 348.0000 0000000   0.0000 348.0000 14.33516502    19
CTC2_L_00215030-02
1 39837U 25515UH  26037.47792824  .00000000  00000+0  00000-0 0  9998
2 39837  70.0000 348.0000 0000000   0.0000  78.0000 14.33516502    10
CTC2_L_00215030-03
1 39838U 24529SB  26037.47792824  .00000000  00000+0  00000-0 0  9993
2 39838  70.0000 348.0000 0000000   0.0000 168.0000 14.33516502    11
CTC2_L_00215030-04
1 39839U 23717RM  26037.47792824  .00000000  00000+0  00000-0 0  9992
2 39839  70.0000 348.0000 0000000   0.0000 258.0000 14.33516502    12
